COMMENT,ORIGINATOR,NORAD_CAT_ID,OBJECT_NAME,OBJECT_TYPE,CLASSIFICATION_TYPE,INTLDES,EPOCH,EPOCH_MICROSECONDS,MEAN_MOTION,ECCENTRICITY,INCLINATION,RA_OF_ASC_NODE,ARG_OF_PERICENTER,MEAN_ANOMALY,EPHEMERIS_TYPE,ELEMENT_SET_NO,REV_AT_EPOCH,BSTAR,MEAN_MOTION_DOT,MEAN_MOTION_DDOT,FILE,TLE_LINE0,TLE_LINE1,TLE_LINE2,OBJECT_ID,OBJECT_NUMBER,SEMIMAJOR_AXIS,PERIOD,APOGEE,PERIGEE,DECAYED
"GENERATED VIA SPACETRACK.ORG API","18 SPCS","55091","SPACEBEE-164","PAYLOAD","U","23001CL","2023-04-29 11:04:01","206912","15.18144501","0.0016344","97.4809","180.0236","168.32","191.8417","0","999","1770","0.00083979","0.00017163","0","3896517","0 SPACEBEE-164","1 55091U 23001CL  23119.46112508  .00017163  00000-0  83979-3 0  9996","2 55091  97.4809 180.0236 0016344 168.3200 191.8417 15.18144501 17703","2023-001CL","55091","6889.586","94.853","522.711","500.190","0"
"GENERATED VIA SPACETRACK.ORG API","18 SPCS","55091","SPACEBEE-164","PAYLOAD","U","23001CL","2023-04-29 17:23:40","297344","15.18154392","0.0016353","97.4809","180.2843","167.5611","192.603","0","999","1774","0.00085128","0.00017404","0","3896808","0 SPACEBEE-164","1 55091U 23001CL  23119.72477196  .00017404  00000-0  85128-3 0  9998","2 55091  97.4809 180.2843 0016353 167.5611 192.6030 15.18154392 17749","2023-001CL","55091","6889.556","94.852","522.687","500.154","0"
"GENERATED VIA SPACETRACK.ORG API","18 SPCS","55091","SPACEBEE-164","PAYLOAD","U","23001CL","2023-04-30 09:12:47","401344","15.18177648","0.0016428","97.4809","180.936","165.2839","194.8876","0","999","1784","0.00084129","0.00017211","0","3897442","0 SPACEBEE-164","1 55091U 23001CL  23120.38388196  .00017211  00000-0  84129-3 0  9999","2 55091  97.4809 180.9360 0016428 165.2839 194.8876 15.18177648 17842","2023-001CL","55091","6889.485","94.851","522.668","500.032","0"
"GENERATED VIA SPACETRACK.ORG API","18 SPCS","55091","SPACEBEE-164","PAYLOAD","U","23001CL","2023-05-01 05:46:37","462368","15.18204729","0.0016477","97.4812","181.7834","162.4176","197.7632","0","999","1797","0.00076172","0.00015585","0","3897982","0 SPACEBEE-164","1 55091U 23001CL  23121.24071137  .00015585  00000-0  76172-3 0  9990","2 55091  97.4812 181.7834 0016477 162.4176 197.7632 15.18204729 17975","2023-001CL","55091","6889.403","94.849","522.620","499.917","0"
"GENERATED VIA SPACETRACK.ORG API","18 SPCS","55091","SPACEBEE-164","PAYLOAD","U","23001CL","2023-05-01 05:46:37","462368","15.18204729","0.0016477","97.4812","181.7834","162.4176","197.7632","0","999","1797","0.00076172","0.00015585","0","3898258","0 SPACEBEE-164","1 55091U 23001CL  23121.24071137  .00015585  00000-0  76172-3 0  9990","2 55091  97.4812 181.7834 0016477 162.4176 197.7632 15.18204729 17975","2023-001CL","55091","6889.403","94.849","522.620","499.917","0"
"GENERATED VIA SPACETRACK.ORG API","18 SPCS","55091","SPACEBEE-164","PAYLOAD","U","23001CL","2023-05-01 18:25:53","808960","15.18219621","0.0016532","97.4812","182.3047","160.5447","199.6421","0","999","1805","0.00072146","0.00014763","0","3898518","0 SPACEBEE-164","1 55091U 23001CL  23121.76798390  .00014763  00000-0  72146-3 0  9998","2 55091  97.4812 182.3047 0016532 160.5447 199.6421 15.18219621 18054","2023-001CL","55091","6889.358","94.848","522.613","499.834","0"
"GENERATED VIA SPACETRACK.ORG API","18 SPCS","55091","SPACEBEE-164","PAYLOAD","U","23001CL","2023-05-02 03:55:20","707968","15.18234895","0.0016538","97.4814","182.6957","159.2425","200.9484","0","999","1811","0.00083048","0.00017017","0","3899068","0 SPACEBEE-164","1 55091U 23001CL  23122.16343412  .00017017  00000-0  83048-3 0  9992","2 55091  97.4814 182.6957 0016538 159.2425 200.9484 15.18234895 18118","2023-001CL","55091","6889.312","94.847","522.571","499.784","0"
"GENERATED VIA SPACETRACK.ORG API","18 SPCS","55091","SPACEBEE-164","PAYLOAD","U","23001CL","2023-05-02 18:09:30","516480","15.18254011","0.0016591","97.4812","183.2823","157.2498","202.9475","0","999","1820","0.00082437","0.00016901","0","3899256","0 SPACEBEE-164","1 55091U 23001CL  23122.75660320  .00016901  00000-0  82437-3 0  9999","2 55091  97.4812 183.2823 0016591 157.2498 202.9475 15.18254011 18206","2023-001CL","55091","6889.254","94.846","522.549","499.689","0"
"GENERATED VIA SPACETRACK.ORG API","18 SPCS","55091","SPACEBEE-164","PAYLOAD","U","23001CL","2023-05-02 18:09:30","516480","15.18254011","0.0016591","97.4812","183.2823","157.2498","202.9475","0","999","1820","0.00082437","0.00016901","0","3899277","0 SPACEBEE-164","1 55091U 23001CL  23122.75660320  .00016901  00000-0  82437-3 0  9999","2 55091  97.4812 183.2823 0016591 157.2498 202.9475 15.18254011 18206","2023-001CL","55091","6889.254","94.846","522.549","499.689","0"
"GENERATED VIA SPACETRACK.ORG API","18 SPCS","55091","SPACEBEE-164","PAYLOAD","U","23001CL","2023-05-03 09:58:34","17600","15.18270903","0.0016624","97.481","183.9341","155.1287","205.0752","0","999","1830","0.00066249","0.00013569","0","3899966","0 SPACEBEE-164","1 55091U 23001CL  23123.41567150  .00013569  00000-0  66249-3 0  9990","2 55091  97.4810 183.9341 0016624 155.1287 205.0752 15.18270903 18307","2023-001CL","55091","6889.203","94.845","522.521","499.616","0"
"GENERATED VIA SPACETRACK.ORG API","18 SPCS","55091","SPACEBEE-164","PAYLOAD","U","23001CL","2023-05-03 17:53:05","452800","15.18282812","0.001666","97.4808","184.2599","154.144","206.063","0","999","1835","0.00070899","0.00014534","0","3900281","0 SPACEBEE-164","1 55091U 23001CL  23123.74520200  .00014534  00000-0  70899-3 0  9990","2 55091  97.4808 184.2599 0016660 154.1440 206.0630 15.18282812 18356","2023-001CL","55091","6889.167","94.844","522.510","499.555","0"
"GENERATED VIA SPACETRACK.ORG API","18 SPCS","55091","SPACEBEE-164","PAYLOAD","U","23001CL","2023-05-04 04:57:25","136352","15.18298159","0.0016665","97.4805","184.7162","152.7628","207.4484","0","999","1842","0.00072857","0.00014944","0","3900552","0 SPACEBEE-164","1 55091U 23001CL  23124.20654093  .00014944  00000-0  72857-3 0  9991","2 55091  97.4805 184.7162 0016665 152.7628 207.4484 15.18298159 18422","2023-001CL","55091","6889.121","94.843","522.466","499.505","0"
"GENERATED VIA SPACETRACK.ORG API","18 SPCS","55091","SPACEBEE-164","PAYLOAD","U","23001CL","2023-05-04 04:57:25","136352","15.18298159","0.0016665","97.4805","184.7162","152.7628","207.4484","0","999","1842","0.00072857","0.00014944","0","3900892","0 SPACEBEE-164","1 55091U 23001CL  23124.20654093  .00014944  00000-0  72857-3 0  9991","2 55091  97.4805 184.7162 0016665 152.7628 207.4484 15.18298159 18422","2023-001CL","55091","6889.121","94.843","522.466","499.505","0"
"GENERATED VIA SPACETRACK.ORG API","18 SPCS","55091","SPACEBEE-164","PAYLOAD","U","23001CL","2023-05-04 17:36:38","611008","15.18316246","0.0016654","97.4804","185.2377","151.2187","208.9969","0","999","1850","0.00080315","0.00016493","0","3901186","0 SPACEBEE-164","1 55091U 23001CL  23124.73378022  .00016493  00000-0  80315-3 0  9993","2 55091  97.4804 185.2377 0016654 151.2187 208.9969 15.18316246 18508","2023-001CL","55091","6889.066","94.842","522.404","499.458","0"
"GENERATED VIA SPACETRACK.ORG API","18 SPCS","55091","SPACEBEE-164","PAYLOAD","U","23001CL","2023-05-05 15:45:15","869088","15.18347644","0.0016624","97.48","186.1501","148.5026","211.7206","0","999","1864","0.00081747","0.00016804","0","3901715","0 SPACEBEE-164","1 55091U 23001CL  23125.65643367  .00016804  00000-0  81747-3 0  9998","2 55091  97.4800 186.1501 0016624 148.5026 211.7206 15.18347644 18648","2023-001CL","55091","6888.971","94.840","522.288","499.384","0"
"GENERATED VIA SPACETRACK.ORG API","18 SPCS","55091","SPACEBEE-164","PAYLOAD","U","23001CL","2023-05-05 17:20:09","897792","15.18349902","0.0016628","97.48","186.2153","148.2977","211.9261","0","999","1865","0.00082095","0.00016877","0","3901993","0 SPACEBEE-164","1 55091U 23001CL  23125.72233678  .00016877  00000-0  82095-3 0  9993","2 55091  97.4800 186.2153 0016628 148.2977 211.9261 15.18349902 18651","2023-001CL","55091","6888.964","94.840","522.284","499.374","0"
"GENERATED VIA SPACETRACK.ORG API","18 SPCS","55091","SPACEBEE-164","PAYLOAD","U","23001CL","2023-05-06 15:28:45","201504","15.18394394","0.0016673","97.4798","187.1282","145.313","214.9195","0","999","1879","0.0012365","0.00025517","0","3902298","0 SPACEBEE-164","1 55091U 23001CL  23126.64496761  .00025517  00000-0  12365-2 0  9992","2 55091  97.4798 187.1282 0016673 145.3130 214.9195 15.18394394 18798","2023-001CL","55091","6888.830","94.837","522.180","499.209","0"
"GENERATED VIA SPACETRACK.ORG API","18 SPCS","55091","SPACEBEE-164","PAYLOAD","U","23001CL","2023-05-07 02:33:02","69280","15.18411954","0.0016739","97.4799","187.5847","143.6614","216.576","0","999","1886","0.0011347","0.00023417","0","3902830","0 SPACEBEE-164","1 55091U 23001CL  23127.10627395  .00023417  00000-0  11347-2 0  9999","2 55091  97.4799 187.5847 0016739 143.6614 216.5760 15.18411954 18867","2023-001CL","55091","6888.777","94.836","522.173","499.110","0"
"GENERATED VIA SPACETRACK.ORG API","18 SPCS","55091","SPACEBEE-164","PAYLOAD","U","23001CL","2023-05-07 02:33:02","69280","15.18411954","0.0016739","97.4799","187.5847","143.6614","216.576","0","999","1886","0.0011347","0.00023417","0","3903215","0 SPACEBEE-164","1 55091U 23001CL  23127.10627395  .00023417  00000-0  11347-2 0  9999","2 55091  97.4799 187.5847 0016739 143.6614 216.5760 15.18411954 18867","2023-001CL","55091","6888.777","94.836","522.173","499.110","0"
"GENERATED VIA SPACETRACK.ORG API","18 SPCS","55091","SPACEBEE-164","PAYLOAD","U","23001CL","2023-05-07 21:31:46","949952","15.18442644","0.0016794","97.4797","188.367","141.0821","219.1626","0","999","1898","0.0010311","0.00021286","0","3903413","0 SPACEBEE-164","1 55091U 23001CL  23127.89707118  .00021286  00000-0  10311-2 0  9999","2 55091  97.4797 188.3670 0016794 141.0821 219.1626 15.18442644 18984","2023-001CL","55091","6888.684","94.834","522.118","498.980","0"
